{
    "links": {
        "self": "http://www.neowsapp.com/rest/v1/neo/3557880?api_key=iIulBulltgU6a56xZRHN4H3l9WmuAYTsLGpBGhQ2"
    },
    "id": "3557880",
    "neo_reference_id": "3557880",
    "name": "(2011 DY4)",
    "designation": "2011 DY4",
    "nasa_jpl_url": "http://ssd.jpl.nasa.gov/sbdb.cgi?sstr=3557880",
    "absolute_magnitude_h": 22.2,
    "estimated_diameter": {
        "kilometers": {
            "estimated_diameter_min": 0.096506147,
            "estimated_diameter_max": 0.2157943048
        },
        "meters": {
            "estimated_diameter_min": 96.5061469579,
            "estimated_diameter_max": 215.7943048444
        },
        "miles": {
            "estimated_diameter_min": 0.059966121,
            "estimated_diameter_max": 0.134088323
        },
        "feet": {
            "estimated_diameter_min": 316.6212271853,
            "estimated_diameter_max": 707.9865871058
        }
    },
    "is_potentially_hazardous_asteroid": false,
    "close_approach_data": [
        {
            "close_approach_date": "2011-02-12",
            "close_approach_date_full": "2011-Feb-12 21:40",
            "epoch_date_close_approach": 1297546800000,
            "relative_velocity": {
                "kilometers_per_second": "22.6734849652",
                "kilometers_per_hour": "81624.5458747456",
                "miles_per_hour": "50718.3185186718"
            },
            "miss_distance": {
                "astronomical": "0.0728696257",
                "lunar": "28.3462843973",
                "kilometers": "10901140.792417259",
                "miles": "6773654.7898618142"
            },
            "orbiting_body": "Earth"
        },
        {
            "close_approach_date": "2013-10-17",
            "close_approach_date_full": "2013-Oct-17 17:08",
            "epoch_date_close_approach": 1382029680000,
            "relative_velocity": {
                "kilometers_per_second": "20.615781828",
                "kilometers_per_hour": "74216.8145808965",
                "miles_per_hour": "46115.4423711131"
            },
            "miss_distance": {
                "astronomical": "0.1140187041",
                "lunar": "44.3532758949",
                "kilometers": "17056955.273520267",
                "miles": "10598700.5386910046"
            },
            "orbiting_body": "Venus"
        },
        {
            "close_approach_date": "2101-05-28",
            "close_approach_date_full": "2101-May-28 11:10",
            "epoch_date_close_approach": 4146721800000,
            "relative_velocity": {
                "kilometers_per_second": "5.0690341315",
                "kilometers_per_hour": "18248.5228734311",
                "miles_per_hour": "11338.9224487717"
            },
            "miss_distance": {
                "astronomical": "1.9162227716",
                "lunar": "745.4106581524",
                "kilometers": "286662845.076856492",
                "miles": "178124032.2096319096"
            },
            "orbiting_body": "Juptr"
        },
        {
            "close_approach_date": "2105-07-26",
            "close_approach_date_full": "2105-Jul-26 09:01",
            "epoch_date_close_approach": 4278042060000,
            "relative_velocity": {
                "kilometers_per_second": "23.9792880142",
                "kilometers_per_hour": "86325.4368511146",
                "miles_per_hour": "53639.2693589606"
            },
            "miss_distance": {
                "astronomical": "0.0399190934",
                "lunar": "15.5285273326",
                "kilometers": "5971811.344971058",
                "miles": "3710711.5017862804"
            },
            "orbiting_body": "Earth"
        },
        {
            "close_approach_date": "2157-05-19",
            "close_approach_date_full": "2157-May-19 23:53",
            "epoch_date_close_approach": 5913215580000,
            "relative_velocity": {
                "kilometers_per_second": "21.9169390606",
                "kilometers_per_hour": "78900.980618335",
                "miles_per_hour": "49026.0009847649"
            },
            "miss_distance": {
                "astronomical": "0.0904750242",
                "lunar": "35.1947844138",
                "kilometers": "13534870.908518454",
                "miles": "8410178.7973805052"
            },
            "orbiting_body": "Venus"
        }
    ],
    "orbital_data": {
        "orbit_id": "13",
        "orbit_determination_date": "2019-03-24 06:53:55",
        "first_observation_date": "2011-02-25",
        "last_observation_date": "2011-03-14",
        "data_arc_in_days": 17,
        "observations_used": 99,
        "orbit_uncertainty": "7",
        "minimum_orbit_intersection": ".0109189",
        "jupiter_tisserand_invariant": "3.363",
        "epoch_osculation": "2459000.5",
        "eccentricity": ".7721010998180551",
        "semi_major_axis": "2.019903470276393",
        "inclination": "6.076565797768136",
        "ascending_node_longitude": "321.5818213539586",
        "orbital_period": "1048.562567557939",
        "perihelion_distance": ".4603337793496838",
        "perihelion_argument": "82.9917615010899",
        "aphelion_distance": "3.579473161203102",
        "perihelion_time": "2458709.249069457875",
        "mean_anomaly": "99.99435249663473",
        "mean_motion": ".3433271519871494",
        "equinox": "J2000",
        "orbit_class": {
            "orbit_class_type": "APO",
            "orbit_class_description": "Near-Earth asteroid orbits which cross the Earth’s orbit similar to that of 1862 Apollo",
            "orbit_class_range": "a (semi-major axis) > 1.0 AU; q (perihelion) < 1.017 AU"
        }
    },
    "is_sentry_object": false
}